STARLINK-35800          
1 66291U 25247AC  26001.58134863  .00062862  00000+0  15684-2 0  9990
2 66291  53.1593 143.5307 0001174  73.5559 286.5575 15.39623333 10807
STARLINK-35798          
1 66292U 25247AD  26001.58168477  .00067734  00000+0  16880-2 0  9991
2 66292  53.1594 143.5324 0001108  72.9895 287.1231 15.39626443 10745
STARLINK-35442          
1 66319U 25253A   26001.66667824  .00023246  00000+0  85225-3 0  9997
2 66319  43.0002 231.3531 0000753 228.9359  15.3207 15.27555158  5857
STARLINK-34616          
1 66320U 25253B   26001.66667824 -.02067319  00000+0 -65964-1 0  9998
2 66320  42.9996 230.6898 0001461 266.5496 251.3448 15.35033681  5663
STARLINK-34615          
1 66321U 25253C   26001.00554909  .00047465  00000+0  17215-2 0  9999
2 66321  42.9995 234.6765 0001894 273.4508  86.6127 15.27614118  9894
STARLINK-35292          
1 66322U 25253D   26001.66058169  .00031468  00000+0  75799-3 0  9997
2 66322  42.9986 231.0253 0001183 242.6499 117.4237 15.40678744  9992
STARLINK-35309          
1 66323U 25253E   26001.03510898  .00060712  00000+0  21948-2 0  9991
2 66323  42.9995 234.9274 0002087 262.4866  97.5748 15.27621355  9895
STARLINK-35506          
1 66324U 25253F   25364.36034204 -.00023561  00000+0 -56939-3 0  9993
2 66324  43.0009 243.8556 0002551 354.1571   5.9255 15.40115885  9644
STARLINK-35504          
1 66325U 25253G   26001.66667824  .00034980  00000+0  12757-2 0  9990
2 66325  43.0005 231.4001 0002056 276.7950 306.2519 15.27552648  5923
STARLINK-35479          
1 66326U 25253H   26001.33335648 -.00015905  00000+0 -56935-3 0  9996
2 66326  42.9990 232.9514 0001637 261.7601  60.6058 15.27598634  5947
STARLINK-35507          
1 66327U 25253J   26001.66667824  .00059942  00000+0  21710-2 0  9996
2 66327  42.9992 230.7830 0001450 263.8787 213.9472 15.27567266  5948
STARLINK-35460          
1 66328U 25253K   26001.03097948  .00039721  00000+0  14081-2 0  9998
2 66328  43.0024 234.8973 0002782 269.6704  90.3829 15.28429830  9898
STARLINK-35505          
1 66329U 25253L   26001.33335648 -.00013205  00000+0 -47115-3 0  9990
2 66329  42.9991 232.9041 0001486 258.2213  85.3873 15.27581173  5891
STARLINK-35512          
1 66330U 25253M   26001.66667824  .00062211  00000+0  21947-2 0  9995
2 66330  42.9996 231.2311 0001926 231.1508  62.3261 15.28412801  5816
STARLINK-35257          
1 66331U 25253N   26001.66667824  .00031813  00000+0  11609-2 0  9994
2 66331  42.9989 230.7289 0000789 225.4046 273.6314 15.27571579  5998
STARLINK-35322          
1 66332U 25253P   26001.66667824 -.00026299  00000+0 -92532-3 0  9994
2 66332  42.9996 230.8743 0001414 249.9733 190.5737 15.28420915  5986
