[{"OBJECT_NAME":"STARLINK-35800","OBJECT_ID":"2025-247AC","EPOCH":"2026-01-01T13:57:08.521632","MEAN_MOTION":15.39623333,"ECCENTRICITY":0.00011744,"INCLINATION":53.1593,"RA_OF_ASC_NODE":143.5307,"ARG_OF_PERICENTER":73.5559,"MEAN_ANOMALY":286.5575,"EPHEMERIS_TYPE":0,"CLASSIFICATION_TYPE":"U","NORAD_CAT_ID":66291,"ELEMENT_SET_NO":999,"REV_AT_EPOCH":1080,"BSTAR":0.0015684183,"MEAN_MOTION_DOT":0.00062862,"MEAN_MOTION_DDOT":0},{"OBJECT_NAME":"STARLINK-35798","OBJECT_ID":"2025-247AD","EPOCH":"2026-01-01T13:57:37.564128","MEAN_MOTION":15.39626443,"ECCENTRICITY":0.00011081,"INCLINATION":53.1594,"RA_OF_ASC_NODE":143.5324,"ARG_OF_PERICENTER":72.9895,"MEAN_ANOMALY":287.1231,"EPHEMERIS_TYPE":0,"CLASSIFICATION_TYPE":"U","NORAD_CAT_ID":66292,"ELEMENT_SET_NO":999,"REV_AT_EPOCH":1074,"BSTAR":0.0016879598,"MEAN_MOTION_DOT":0.00067734,"MEAN_MOTION_DDOT":0},{"OBJECT_NAME":"STARLINK-35442","OBJECT_ID":"2025-253A","EPOCH":"2026-01-01T16:00:00.999936","MEAN_MOTION":15.27555158,"ECCENTRICITY":7.532e-5,"INCLINATION":43.0002,"RA_OF_ASC_NODE":231.3531,"ARG_OF_PERICENTER":228.9359,"MEAN_ANOMALY":15.3207,"EPHEMERIS_TYPE":0,"CLASSIFICATION_TYPE":"U","NORAD_CAT_ID":66319,"ELEMENT_SET_NO":999,"REV_AT_EPOCH":585,"BSTAR":0.00085224536,"MEAN_MOTION_DOT":0.00023246,"MEAN_MOTION_DDOT":0},{"OBJECT_NAME":"STARLINK-34616","OBJECT_ID":"2025-253B","EPOCH":"2026-01-01T16:00:00.999936","MEAN_MOTION":15.35033681,"ECCENTRICITY":0.00014611,"INCLINATION":42.9996,"RA_OF_ASC_NODE":230.6898,"ARG_OF_PERICENTER":266.5496,"MEAN_ANOMALY":251.3448,"EPHEMERIS_TYPE":0,"CLASSIFICATION_TYPE":"U","NORAD_CAT_ID":66320,"ELEMENT_SET_NO":999,"REV_AT_EPOCH":566,"BSTAR":-0.065963997,"MEAN_MOTION_DOT":-0.02067319,"MEAN_MOTION_DDOT":0},{"OBJECT_NAME":"STARLINK-34615","OBJECT_ID":"2025-253C","EPOCH":"2026-01-01T00:07:59.441376","MEAN_MOTION":15.27614118,"ECCENTRICITY":0.00018941,"INCLINATION":42.9995,"RA_OF_ASC_NODE":234.6765,"ARG_OF_PERICENTER":273.4508,"MEAN_ANOMALY":86.6127,"EPHEMERIS_TYPE":0,"CLASSIFICATION_TYPE":"U","NORAD_CAT_ID":66321,"ELEMENT_SET_NO":999,"REV_AT_EPOCH":989,"BSTAR":0.0017214759,"MEAN_MOTION_DOT":0.00047465,"MEAN_MOTION_DDOT":0},{"OBJECT_NAME":"STARLINK-35292","OBJECT_ID":"2025-253D","EPOCH":"2026-01-01T15:51:14.258016","MEAN_MOTION":15.40678744,"ECCENTRICITY":0.00011833,"INCLINATION":42.9986,"RA_OF_ASC_NODE":231.0253,"ARG_OF_PERICENTER":242.6499,"MEAN_ANOMALY":117.4237,"EPHEMERIS_TYPE":0,"CLASSIFICATION_TYPE":"U","NORAD_CAT_ID":66322,"ELEMENT_SET_NO":999,"REV_AT_EPOCH":999,"BSTAR":0.00075799467,"MEAN_MOTION_DOT":0.00031468,"MEAN_MOTION_DDOT":0},{"OBJECT_NAME":"STARLINK-35309","OBJECT_ID":"2025-253E","EPOCH":"2026-01-01T00:50:33.415872","MEAN_MOTION":15.27621355,"ECCENTRICITY":0.00020875,"INCLINATION":42.9995,"RA_OF_ASC_NODE":234.9274,"ARG_OF_PERICENTER":262.4866,"MEAN_ANOMALY":97.5748,"EPHEMERIS_TYPE":0,"CLASSIFICATION_TYPE":"U","NORAD_CAT_ID":66323,"ELEMENT_SET_NO":999,"REV_AT_EPOCH":989,"BSTAR":0.002194837,"MEAN_MOTION_DOT":0.00060712,"MEAN_MOTION_DDOT":0},{"OBJECT_NAME":"STARLINK-35506","OBJECT_ID":"2025-253F","EPOCH":"2025-12-30T08:38:53.552256","MEAN_MOTION":15.40115885,"ECCENTRICITY":0.00025511,"INCLINATION":43.0009,"RA_OF_ASC_NODE":243.8556,"ARG_OF_PERICENTER":354.1571,"MEAN_ANOMALY":5.9255,"EPHEMERIS_TYPE":0,"CLASSIFICATION_TYPE":"U","NORAD_CAT_ID":66324,"ELEMENT_SET_NO":999,"REV_AT_EPOCH":964,"BSTAR":-0.00056938554,"MEAN_MOTION_DOT":-0.00023561,"MEAN_MOTION_DDOT":0},{"OBJECT_NAME":"STARLINK-35504","OBJECT_ID":"2025-253G","EPOCH":"2026-01-01T16:00:00.999936","MEAN_MOTION":15.27552648,"ECCENTRICITY":0.00020562,"INCLINATION":43.0005,"RA_OF_ASC_NODE":231.4001,"ARG_OF_PERICENTER":276.795,"MEAN_ANOMALY":306.2519,"EPHEMERIS_TYPE":0,"CLASSIFICATION_TYPE":"U","NORAD_CAT_ID":66325,"ELEMENT_SET_NO":999,"REV_AT_EPOCH":592,"BSTAR":0.0012756847,"MEAN_MOTION_DOT":0.0003498,"MEAN_MOTION_DDOT":0},{"OBJECT_NAME":"STARLINK-35479","OBJECT_ID":"2025-253H","EPOCH":"2026-01-01T08:00:01.999872","MEAN_MOTION":15.27598634,"ECCENTRICITY":0.0001637,"INCLINATION":42.999,"RA_OF_ASC_NODE":232.9514,"ARG_OF_PERICENTER":261.7601,"MEAN_ANOMALY":60.6058,"EPHEMERIS_TYPE":0,"CLASSIFICATION_TYPE":"U","NORAD_CAT_ID":66326,"ELEMENT_SET_NO":999,"REV_AT_EPOCH":594,"BSTAR":-0.00056934671,"MEAN_MOTION_DOT":-0.00015905,"MEAN_MOTION_DDOT":0},{"OBJECT_NAME":"STARLINK-35507","OBJECT_ID":"2025-253J","EPOCH":"2026-01-01T16:00:00.999936","MEAN_MOTION":15.27567266,"ECCENTRICITY":0.000145,"INCLINATION":42.9992,"RA_OF_ASC_NODE":230.783,"ARG_OF_PERICENTER":263.8787,"MEAN_ANOMALY":213.9472,"EPHEMERIS_TYPE":0,"CLASSIFICATION_TYPE":"U","NORAD_CAT_ID":66327,"ELEMENT_SET_NO":999,"REV_AT_EPOCH":594,"BSTAR":0.0021709844,"MEAN_MOTION_DOT":0.00059942,"MEAN_MOTION_DDOT":0},{"OBJECT_NAME":"STARLINK-35460","OBJECT_ID":"2025-253K","EPOCH":"2026-01-01T00:44:36.627072","MEAN_MOTION":15.2842983,"ECCENTRICITY":0.00027825,"INCLINATION":43.0024,"RA_OF_ASC_NODE":234.8973,"ARG_OF_PERICENTER":269.6704,"MEAN_ANOMALY":90.3829,"EPHEMERIS_TYPE":0,"CLASSIFICATION_TYPE":"U","NORAD_CAT_ID":66328,"ELEMENT_SET_NO":999,"REV_AT_EPOCH":989,"BSTAR":0.0014081141,"MEAN_MOTION_DOT":0.00039721,"MEAN_MOTION_DDOT":0},{"OBJECT_NAME":"STARLINK-35505","OBJECT_ID":"2025-253L","EPOCH":"2026-01-01T08:00:01.999872","MEAN_MOTION":15.27581173,"ECCENTRICITY":0.00014869,"INCLINATION":42.9991,"RA_OF_ASC_NODE":232.9041,"ARG_OF_PERICENTER":258.2213,"MEAN_ANOMALY":85.3873,"EPHEMERIS_TYPE":0,"CLASSIFICATION_TYPE":"U","NORAD_CAT_ID":66329,"ELEMENT_SET_NO":999,"REV_AT_EPOCH":589,"BSTAR":-0.00047114723,"MEAN_MOTION_DOT":-0.00013205,"MEAN_MOTION_DDOT":0},{"OBJECT_NAME":"STARLINK-35512","OBJECT_ID":"2025-253M","EPOCH":"2026-01-01T16:00:00.999936","MEAN_MOTION":15.28412801,"ECCENTRICITY":0.00019264,"INCLINATION":42.9996,"RA_OF_ASC_NODE":231.2311,"ARG_OF_PERICENTER":231.1508,"MEAN_ANOMALY":62.3261,"EPHEMERIS_TYPE":0,"CLASSIFICATION_TYPE":"U","NORAD_CAT_ID":66330,"ELEMENT_SET_NO":999,"REV_AT_EPOCH":581,"BSTAR":0.0021947031,"MEAN_MOTION_DOT":0.00062211,"MEAN_MOTION_DDOT":0},{"OBJECT_NAME":"STARLINK-35257","OBJECT_ID":"2025-253N","EPOCH":"2026-01-01T16:00:00.999936","MEAN_MOTION":15.27571579,"ECCENTRICITY":7.898e-5,"INCLINATION":42.9989,"RA_OF_ASC_NODE":230.7289,"ARG_OF_PERICENTER":225.4046,"MEAN_ANOMALY":273.6314,"EPHEMERIS_TYPE":0,"CLASSIFICATION_TYPE":"U","NORAD_CAT_ID":66331,"ELEMENT_SET_NO":999,"REV_AT_EPOCH":599,"BSTAR":0.0011609003,"MEAN_MOTION_DOT":0.00031813,"MEAN_MOTION_DDOT":0},{"OBJECT_NAME":"STARLINK-35322","OBJECT_ID":"2025-253P","EPOCH":"2026-01-01T16:00:00.999936","MEAN_MOTION":15.28420915,"ECCENTRICITY":0.00014149,"INCLINATION":42.9996,"RA_OF_ASC_NODE":230.8743,"ARG_OF_PERICENTER":249.9733,"MEAN_ANOMALY":190.5737,"EPHEMERIS_TYPE":0,"CLASSIFICATION_TYPE":"U","NORAD_CAT_ID":66332,"ELEMENT_SET_NO":999,"REV_AT_EPOCH":598,"BSTAR":-0.00092532037,"MEAN_MOTION_DOT":-0.00026299,"MEAN_MOTION_DDOT":0}]
